[
  {
    "OBJECT_NAME": "METEOR-M2 4",
    "OBJECT_ID": "2024-039A",
    "EPOCH": "2025-05-24T21:17:07.407456",
    "MEAN_MOTION": 14.22365638,
    "ECCENTRICITY": 0.0006406,
    "INCLINATION": 98.6486,
    "RA_OF_ASC_NODE": 105.3167,
    "ARG_OF_PERICENTER": 206.126,
    "MEAN_ANOMALY": 153.9596,
    "EPHEMERIS_TYPE": 0,
    "CLASSIFICATION_TYPE": "U",
    "NORAD_CAT_ID": 59051,
    "ELEMENT_SET_NO": 999,
    "REV_AT_EPOCH": 6406,
    "BSTAR": 2.423e-05,
    "MEAN_MOTION_DOT": 1.1e-07,
    "MEAN_MOTION_DDOT": 0
  },
  {
    "OBJECT_NAME": "GOES 19",
    "OBJECT_ID": "2024-119A",
    "EPOCH": "2025-05-24T12:02:56.088384",
    "MEAN_MOTION": 1.0027019,
    "ECCENTRICITY": 5.8e-06,
    "INCLINATION": 0.0217,
    "RA_OF_ASC_NODE": 79.5377,
    "ARG_OF_PERICENTER": 180.9267,
    "MEAN_ANOMALY": 87.4073,
    "EPHEMERIS_TYPE": 0,
    "CLASSIFICATION_TYPE": "U",
    "NORAD_CAT_ID": 60133,
    "ELEMENT_SET_NO": 999,
    "REV_AT_EPOCH": 306,
    "BSTAR": 0,
    "MEAN_MOTION_DOT": -2.39e-06,
    "MEAN_MOTION_DDOT": 0
  }
]