METEOR-M2 4             
1 59051U 24039A   25144.88689129  .00000011  00000+0  24230-4 0  9991
2 59051  98.6486 105.3167 0006406 206.1260 153.9596 14.22365638 64063
GOES 19                 
1 60133U 24119A   25144.50203806 -.00000239  00000+0  00000+0 0  9993
2 60133   0.0217  79.5377 0000058 180.9267  87.4073  1.00270190  3067
